[{"OBJECT_NAME":"STARLINK-32470","OBJECT_ID":"2024-222B","EPOCH":"2026-03-08T14:16:58.090656","MEAN_MOTION":15.27617045,"ECCENTRICITY":0.00010814,"INCLINATION":43.0014,"RA_OF_ASC_NODE":142.1928,"ARG_OF_PERICENTER":239.1347,"MEAN_ANOMALY":120.9398,"EPHEMERIS_TYPE":0,"CLASSIFICATION_TYPE":"U","NORAD_CAT_ID":62115,"ELEMENT_SET_NO":999,"REV_AT_EPOCH":7273,"BSTAR":0.0015505794,"MEAN_MOTION_DOT":0.00042702,"MEAN_MOTION_DDOT":0},{"OBJECT_NAME":"CZ-6A DEB","OBJECT_ID":"2022-151AJB","EPOCH":"2026-02-27T14:06:27.470880","MEAN_MOTION":15.13235807,"ECCENTRICITY":0.00651829,"INCLINATION":98.7617,"RA_OF_ASC_NODE":191.4844,"ARG_OF_PERICENTER":85.1472,"MEAN_ANOMALY":275.7194,"EPHEMERIS_TYPE":0,"CLASSIFICATION_TYPE":"U","NORAD_CAT_ID":58433,"ELEMENT_SET_NO":999,"REV_AT_EPOCH":15167,"BSTAR":0.0027921214,"MEAN_MOTION_DOT":0.00052525,"MEAN_MOTION_DDOT":0}]
